TRANSIT 18 [?]          
1 03133U 68012A   17345.90576109  .00000037  00000-0  42340-4 0  9991
2 03133  89.9673 274.5152 0076079 356.3094  71.0927 13.51000963174566
